STARLINK-36366          
1 68122U 26044X   26083.41668981 -.00231044  00000+0 -15836-2 0  9997
2 68122  97.2850  44.3170 0001806 104.6953 148.6177 15.75285449  3764
STARLINK-36922          
1 68123U 26044Y   26083.41668981 -.00180342  00000+0 -12290-2 0  9993
2 68123  97.2850  44.3238 0001319  84.9700 182.3339 15.75281542  3764
STARLINK-36938          
1 68124U 26044Z   26083.54922980  .00150044  00000+0  76573-3 0  9999
2 68124  97.2839  44.4888 0002042 112.1445 248.0040 15.80956107  3826
STARLINK-36839          
1 68125U 26044AA  26083.41668981 -.00337053  00000+0 -23281-2 0  9990
2 68125  97.2850  44.3212 0001410 103.7449 157.5497 15.75396089  3728
ECHOSTAR 25             
1 68126U 26045A   26082.74158170  .00000031  00000+0  00000+0 0  9993
2 68126   0.0662 279.4493 0001434 192.5501 206.5579  1.00483616   139
ICOR SV                 
1 68127U 26046A   26083.55829368  .00355749  59028-4  61523-3 0  9998
2 68127 123.0774 273.1340 0115038 211.4759 147.9392 15.90513368  1969
FIREFLY ALPHA R/B       
1 68128U 26046B   26083.28037346  .00036973  00000+0  50798-3 0  9994
2 68128 123.0939 269.4387 0015298   9.5402 350.5946 15.56868977  1913
GUOWANG GROUP 20 OBJECT*
1 68129U 26047A   26083.18582620 -.00000108  00000+0  28193-4 0  9992
2 68129  50.0052  11.4119 0000523 284.8650  75.2195 14.00118621  1600
GUOWANG GROUP 20 OBJECT*
1 68130U 26047B   26083.46957175 -.00000077  00000+0  49172-4 0  9991
2 68130  50.0060  10.2480 0000229 293.0264  67.0614 14.00458019  1631
GUOWANG GROUP 20 OBJECT*
1 68131U 26047C   26082.89746215 -.00000117  00000+0  22265-4 0  9998
2 68131  50.0005  12.5340 0001695 156.1490 203.9492 14.00819949  1569
GUOWANG GROUP 20 OBJECT*
1 68132U 26047D   26081.54200489 -.00000094  00000+0  36541-4 0  9994
2 68132  50.0070  18.0496 0003246 299.4777  60.5803 14.02976610  1360
GUOWANG GROUP 20 OBJECT*
1 68133U 26047E   26081.32743227 -.00000117  00000+0  21599-4 0  9996
2 68133  50.0037  18.9087 0001845 286.6306  73.4395 14.03282701  1347
